OBJECT_NAME,OBJECT_ID,EPOCH,MEAN_MOTION,ECCENTRICITY,INCLINATION,RA_OF_ASC_NODE,ARG_OF_PERICENTER,MEAN_ANOMALY,EPHEMERIS_TYPE,CLASSIFICATION_TYPE,NORAD_CAT_ID,ELEMENT_SET_NO,REV_AT_EPOCH,BSTAR,MEAN_MOTION_DOT,MEAN_MOTION_DDOT
DMSP 5D-3 F16 (USA 172),2003-048A,2026-06-12T07:08:35.440224,14.14482690,.00075099,98.9891,187.0935,152.8536,338.7557,0,U,28054,999,16879,.24999544E-4,.3E-7,0
METEOSAT-9 (MSG-2),2005-049B,2026-06-11T20:18:20.417760,1.00269859,.00015838,9.3488,54.2186,346.4858,209.7216,0,U,28912,999,694,0,.133E-5,0
DMSP 5D-3 F17 (USA 191),2006-050A,2026-06-12T06:58:29.137728,14.14992420,.00112857,98.7378,169.9608,71.8855,288.3547,0,U,29522,999,1173,.45509026E-4,.45E-6,0
FENGYUN 3A,2008-026A,2026-06-12T02:43:24.449088,14.19570122,.00093798,98.6884,104.0416,137.0323,223.1587,0,U,32958,999,93468,.38835592E-4,.39E-6,0
GOES 14,2009-033A,2026-06-12T07:02:30.276672,1.00112438,.0001768,1.6767,83.0988,8.9294,58.8696,0,U,35491,999,654,0,-.257E-5,0
DMSP 5D-3 F18 (USA 210),2009-057A,2026-06-12T06:16:48.116064,14.14894225,.00098416,98.9036,144.0415,265.1961,94.8089,0,U,35951,999,85889,.15341061E-3,.252E-5,0
EWS-G2 (GOES 15),2010-008A,2026-06-12T04:57:21.758976,1.00275528,.0005396,1.2635,82.9363,41.0669,274.5321,0,U,36411,999,5958,0,.33E-6,0
COMS 1,2010-032A,2026-06-03T23:47:39.107040,1.00270643,.0001016,4.7750,75.5286,4.5847,297.3769,0,U,36744,999,5095,0,-.334E-5,0
FENGYUN 3B,2010-059A,2026-06-12T07:07:17.305248,14.14839628,.00216432,98.9626,209.2906,198.0732,294.1941,0,U,37214,999,80673,.52172844E-4,.56E-6,0
SUOMI NPP,2011-061A,2026-06-12T06:22:23.096640,14.19516436,.00018076,98.7954,104.1752,17.8501,342.2738,0,U,37849,999,75774,.43877558E-4,.48E-6,0
METEOSAT-10 (MSG-3),2012-035B,2026-06-12T01:13:25.830624,1.00276007,.00014524,4.6588,61.0401,330.4387,247.5373,0,U,38552,999,5080,0,.8E-7,0
METOP-B,2012-049A,2026-06-12T06:17:36.706560,14.21431438,.00025319,98.6506,214.8595,31.5532,328.5797,0,U,38771,999,71256,.62093195E-4,.92E-6,0
INSAT-3D,2013-038B,2026-06-12T06:58:15.684384,1.00271554,.0000607,1.9128,82.5990,311.1154,100.9997,0,U,39216,999,4703,0,-.324E-5,0
FENGYUN 3C,2013-052A,2026-06-12T05:42:44.531424,14.15754081,.00154869,98.4976,137.3402,41.2668,318.9675,0,U,39260,999,65786,.64762613E-4,.86E-6,0
METEOR-M 2,2014-037A,2026-06-12T05:14:21.025824,14.21460248,.00069299,98.5106,139.1326,56.6615,303.5226,0,U,40069,999,61861,.10898172E-3,.196E-5,0
HIMAWARI-8,2014-060A,2026-06-12T07:01:22.883808,1.00269306,.00007108,0.0154,339.8220,133.4699,33.3327,0,U,40267,999,4271,0,-.261E-5,0
FENGYUN 2G,2014-090A,2026-06-11T22:41:57.926976,1.00274837,.00037786,5.6243,72.8813,153.2581,114.2880,0,U,40367,999,4194,0,-.29E-5,0
METEOSAT-11 (MSG-4),2015-034A,2026-06-12T06:24:03.402720,1.00278811,.00017441,3.1896,71.1389,8.2779,286.7213,0,U,40732,999,716,0,.78E-6,0
ELEKTRO-L 2,2015-074A,2026-06-12T01:09:11.108736,1.00271076,.00008075,6.6796,70.5874,263.0780,289.5215,0,U,41105,999,3845,0,-.106E-5,0
SENTINEL-3A,2016-011A,2026-06-12T05:41:46.296096,14.26738666,.00013734,98.6249,230.6919,103.3738,256.7596,0,U,41335,999,53735,.56684099E-4,.94E-6,0
INSAT-3DR,2016-054A,2026-06-12T04:41:57.756768,1.00270623,.00105923,0.0928,87.0939,186.9091,130.9983,0,U,41752,999,3576,0,-.61E-6,0
HIMAWARI-9,2016-064A,2026-06-12T07:01:30.372096,1.00269383,.00007913,0.0188,74.4434,67.2185,5.1106,0,U,41836,999,3516,0,0,0
GOES 16,2016-071A,2026-06-12T05:51:28.339200,1.00270156,.00002608,0.3277,85.5604,298.9228,219.2798,0,U,41866,999,3505,0,-.75E-6,0
FENGYUN 4A,2016-077A,2026-06-12T06:56:30.850944,1.00271429,.0008568,2.3089,80.3489,152.1302,256.0576,0,U,41882,999,3488,0,-.343E-5,0
CYGFM05,2016-078A,2026-06-12T01:10:03.565632,15.56445708,.00067218,34.9573,294.6103,98.2131,261.9355,0,U,41884,999,52795,.31491721E-3,.23052E-3,0
CYGFM04,2016-078B,2026-06-11T23:18:32.378112,15.61226098,.00061307,34.9327,263.0749,145.0385,215.0743,0,U,41885,999,52818,.32588421E-3,.28635E-3,0
CYGFM02,2016-078C,2026-06-11T15:54:17.106336,15.64149441,.00070841,34.9406,259.8282,143.0324,217.0892,0,U,41886,999,52830,.33965846E-3,.33509E-3,0
CYGFM01,2016-078D,2026-06-11T18:47:43.947456,15.57103834,.00065533,34.9403,297.4695,88.2515,271.8959,0,U,41887,999,52786,.3217385E-3,.24143E-3,0
CYGFM08,2016-078E,2026-06-11T18:02:39.557472,15.59736924,.00077987,34.9434,277.3981,123.1377,237.0098,0,U,41888,999,52812,.32097477E-3,.26636E-3,0
CYGFM07,2016-078G,2026-06-11T23:12:57.145248,15.59849811,.00064681,34.9450,264.3111,144.1043,216.0117,0,U,41890,999,52818,.31229013E-3,.26012E-3,0
CYGFM03,2016-078H,2026-06-11T16:22:31.255680,15.59829046,.00059456,34.9403,268.1465,127.6188,232.5077,0,U,41891,999,52811,.32133979E-3,.26745E-3,0
