DMSP 5D-3 F16 (USA 172) 
1 28054U 03048A   26163.29763241  .00000003  00000+0  25000-4 0  9999
2 28054  98.9891 187.0935 0007509 152.8536 338.7557 14.14482690168797
METEOSAT-9 (MSG-2)      
1 28912U 05049B   26162.84606965  .00000133  00000+0  00000+0 0  9996
2 28912   9.3488  54.2186 0001583 346.4858 209.7216  1.00269859  6943
DMSP 5D-3 F17 (USA 191) 
1 29522U 06050A   26163.29061502  .00000045  00000+0  45509-4 0  9999
2 29522  98.7378 169.9608 0011285  71.8855 288.3547 14.14992420 11739
FENGYUN 3A              
1 32958U 08026A   26163.11347742  .00000039  00000+0  38836-4 0  9993
2 32958  98.6884 104.0416 0009379 137.0323 223.1587 14.19570122934685
GOES 14                 
1 35491U 09033A   26163.29340598 -.00000257  00000+0  00000+0 0  9998
2 35491   1.6767  83.0988 0001768   8.9294  58.8696  1.00112438  6548
DMSP 5D-3 F18 (USA 210) 
1 35951U 09057A   26163.26166801  .00000252  00000+0  15341-3 0  9997
2 35951  98.9036 144.0415 0009841 265.1961  94.8089 14.14894225858897
EWS-G2 (GOES 15)        
1 36411U 10008A   26163.20650184  .00000033  00000+0  00000+0 0  9992
2 36411   1.2635  82.9363 0005396  41.0669 274.5321  1.00275528 59585
COMS 1                  
1 36744U 10032A   26154.99142485 -.00000334  00000+0  00000+0 0  9999
2 36744   4.7750  75.5286 0001016   4.5847 297.3769  1.00270643 50953
FENGYUN 3B              
1 37214U 10059A   26163.29672807  .00000056  00000+0  52173-4 0  9993
2 37214  98.9626 209.2906 0021643 198.0732 294.1941 14.14839628806733
SUOMI NPP               
1 37849U 11061A   26163.26554510  .00000048  00000+0  43878-4 0  9991
2 37849  98.7954 104.1752 0001807  17.8501 342.2738 14.19516436757742
METEOSAT-10 (MSG-3)     
1 38552U 12035B   26163.05099341  .00000008  00000+0  00000+0 0  9999
2 38552   4.6588  61.0401 0001452 330.4387 247.5373  1.00276007 50805
METOP-B                 
1 38771U 12049A   26163.26223040  .00000092  00000+0  62093-4 0  9993
2 38771  98.6506 214.8595 0002531  31.5532 328.5797 14.21431438712569
INSAT-3D                
1 39216U 13038B   26163.29045931 -.00000324  00000+0  00000+0 0  9995
2 39216   1.9128  82.5990 0000607 311.1154 100.9997  1.00271554 47030
FENGYUN 3C              
1 39260U 13052A   26163.23801541  .00000086  00000+0  64763-4 0  9996
2 39260  98.4976 137.3402 0015486  41.2668 318.9675 14.15754081657863
METEOR-M 2              
1 40069U 14037A   26163.21829891  .00000196  00000+0  10898-3 0  9996
2 40069  98.5106 139.1326 0006929  56.6615 303.5226 14.21460248618615
HIMAWARI-8              
1 40267U 14060A   26163.29262597 -.00000261  00000+0  00000+0 0  9998
2 40267   0.0154 339.8220 0000710 133.4699  33.3327  1.00269306 42713
FENGYUN 2G              
1 40367U 14090A   26162.94580934 -.00000290  00000+0  00000+0 0  9993
2 40367   5.6243  72.8813 0003778 153.2581 114.2880  1.00274837 41945
METEOSAT-11 (MSG-4)     
1 40732U 15034A   26163.26670605  .00000078  00000+0  00000+0 0  9992
2 40732   3.1896  71.1389 0001744   8.2779 286.7213  1.00278811  7164
ELEKTRO-L 2             
1 41105U 15074A   26163.04804524 -.00000106  00000+0  00000+0 0  9999
2 41105   6.6796  70.5874 0000807 263.0780 289.5215  1.00271076 38455
SENTINEL-3A             
1 41335U 16011A   26163.23734139  .00000094  00000+0  56684-4 0  9990
2 41335  98.6249 230.6919 0001373 103.3738 256.7596 14.26738666537357
INSAT-3DR               
1 41752U 16054A   26163.19580737 -.00000061  00000+0  00000+0 0  9999
2 41752   0.0928  87.0939 0010592 186.9091 130.9983  1.00270623 35762
HIMAWARI-9              
1 41836U 16064A   26163.29271264  .00000000  00000+0  00000+0 0  9998
2 41836   0.0188  74.4434 0000791  67.2185   5.1106  1.00269383 35163
GOES 16                 
1 41866U 16071A   26163.24407800 -.00000075  00000+0  00000+0 0  9994
2 41866   0.3277  85.5604 0000260 298.9228 219.2798  1.00270156 35055
FENGYUN 4A              
1 41882U 16077A   26163.28924596 -.00000343  00000+0  00000+0 0  9996
2 41882   2.3089  80.3489 0008568 152.1302 256.0576  1.00271429 34880
CYGFM05                 
1 41884U 16078A   26163.04865238  .00023052  00000+0  31492-3 0  9994
2 41884  34.9573 294.6103 0006721  98.2131 261.9355 15.56445708527957
CYGFM04                 
1 41885U 16078B   26162.97120808  .00028635  00000+0  32588-3 0  9992
2 41885  34.9327 263.0749 0006130 145.0385 215.0743 15.61226098528189
CYGFM02                 
1 41886U 16078C   26162.66269799  .00033509  00000+0  33966-3 0  9999
2 41886  34.9406 259.8282 0007084 143.0324 217.0892 15.64149441528303
CYGFM01                 
1 41887U 16078D   26162.78314754  .00024143  00000+0  32174-3 0  9999
2 41887  34.9403 297.4695 0006553  88.2515 271.8959 15.57103834527869
CYGFM08                 
1 41888U 16078E   26162.75184673  .00026636  00000+0  32097-3 0  9995
2 41888  34.9434 277.3981 0007798 123.1377 237.0098 15.59736924528128
CYGFM07                 
1 41890U 16078G   26162.96732807  .00026012  00000+0  31229-3 0  9993
2 41890  34.9450 264.3111 0006468 144.1043 216.0117 15.59849811528181
CYGFM03                 
1 41891U 16078H   26162.68230620  .00026745  00000+0  32134-3 0  9998
2 41891  34.9403 268.1465 0005945 127.6188 232.5077 15.59829046528118
